start=new Date('2021-09-01T00:00:00.000Z').valueOf();
sats=[{"MEAN_MOTION_DOT":"0.00000162","MEAN_ANOMALY":"245.2062","COUNTRY_CODE":"US","FILE":"3106454","EPHEMERIS_TYPE":"0","RA_OF_ASC_NODE":"338.1904","GP_ID":"183840084","ECCENTRICITY":"0.00010770","APOAPSIS":"548.002","MEAN_ELEMENT_THEORY":"SGP4","ARG_OF_PERICENTER":"114.9039","INCLINATION":"53.0548","REF_FRAME":"TEME","OBJECT_NAME":"STARLINK-1558","DECAY_DATE":null,"OBJECT_TYPE":"PAYLOAD","TLE_LINE1":"1 46035U 20055J   21243.70455720  .00000162  00000-0  29753-4 0  9991","ELEMENT_SET_NO":"999","LAUNCH_DATE":"2020-08-07","PERIAPSIS":"546.511","EPOCH":"2021-08-31T16:54:33.742080","TLE_LINE2":"2 46035  53.0548 338.1904 0001077 114.9039 245.2062 15.06386010 60057","CLASSIFICATION_TYPE":"U","OBJECT_ID":"2020-055J","CENTER_NAME":"EARTH","SITE":"AFETR","REV_AT_EPOCH":"6005","NORAD_CAT_ID":"46035","RCS_SIZE":"LARGE","PERIOD":"95.593","MEAN_MOTION_DDOT":"0.0000000000000","TIME_SYSTEM":"UTC","MEAN_MOTION":"15.06386010","SEMIMAJOR_AXIS":"6925.391","BSTAR":"0.00002975300000"},{"EPOCH":"2021-08-31T14:57:48.334176","PERIAPSIS":"546.532","ELEMENT_SET_NO":"999","LAUNCH_DATE":"2020-08-07","TLE_LINE1":"1 46036U 20055K   21243.62347609 -.00001789  00000-0 -10132-3 0  9997","TLE_LINE2":"2 46036  53.0547 338.5554 0001047 118.3459 241.7636 15.06385831 60040","OBJECT_NAME":"STARLINK-1560","OBJECT_TYPE":"PAYLOAD","DECAY_DATE":null,"APOAPSIS":"547.982","ECCENTRICITY":"0.00010470","GP_ID":"183840836","REF_FRAME":"TEME","INCLINATION":"53.0547","ARG_OF_PERICENTER":"118.3459","MEAN_ELEMENT_THEORY":"SGP4","FILE":"3106454","COUNTRY_CODE":"US","MEAN_ANOMALY":"241.7636","MEAN_MOTION_DOT":"-0.00001789","RA_OF_ASC_NODE":"338.5554","EPHEMERIS_TYPE":"0","SEMIMAJOR_AXIS":"6925.392","MEAN_MOTION":"15.06385831","TIME_SYSTEM":"UTC","MEAN_MOTION_DDOT":"0.0000000000000","BSTAR":"-0.00010132000000","SITE":"AFETR","REV_AT_EPOCH":"6004","PERIOD":"95.593","RCS_SIZE":"LARGE","NORAD_CAT_ID":"46036","CENTER_NAME":"EARTH","OBJECT_ID":"2020-055K","CLASSIFICATION_TYPE":"U"},{"OBJECT_NAME":"STARLINK-1565","OBJECT_TYPE":"PAYLOAD","DECAY_DATE":null,"EPOCH":"2021-08-31T13:16:57.522720","PERIAPSIS":"546.283","ELEMENT_SET_NO":"999","LAUNCH_DATE":"2020-08-07","TLE_LINE1":"1 46037U 20055L   21243.55344355 -.00001721  00000-0 -96710-4 0  9998","TLE_LINE2":"2 46037  53.0562 338.8673 0001413 116.8728 243.2406 15.06384464 60023","COUNTRY_CODE":"US","FILE":"3106313","MEAN_ANOMALY":"243.2406","MEAN_MOTION_DOT":"-0.00001721","RA_OF_ASC_NODE":"338.8673","EPHEMERIS_TYPE":"0","APOAPSIS":"548.240","ECCENTRICITY":"0.00014130","GP_ID":"183813012","REF_FRAME":"TEME","INCLINATION":"53.0562","ARG_OF_PERICENTER":"116.8728","MEAN_ELEMENT_THEORY":"SGP4","SITE":"AFETR","REV_AT_EPOCH":"6002","PERIOD":"95.593","RCS_SIZE":"LARGE","NORAD_CAT_ID":"46037","SEMIMAJOR_AXIS":"6925.396","MEAN_MOTION":"15.06384464","TIME_SYSTEM":"UTC","MEAN_MOTION_DDOT":"0.0000000000000","BSTAR":"-0.00009671000000","CLASSIFICATION_TYPE":"U","CENTER_NAME":"EARTH","OBJECT_ID":"2020-055L"},{"EPOCH":"2021-08-31T13:38:10.999104","PERIAPSIS":"546.403","LAUNCH_DATE":"2020-08-07","ELEMENT_SET_NO":"999","TLE_LINE1":"1 46038U 20055M   21243.56818286 -.00001501  00000-0 -81906-4 0  9996","TLE_LINE2":"2 46038  53.0560 338.8044 0001220 119.4260 240.6851 15.06388855 59515","OBJECT_NAME":"STARLINK-1567","OBJECT_TYPE":"PAYLOAD","DECAY_DATE":null,"APOAPSIS":"548.093","ECCENTRICITY":"0.00012200","GP_ID":"183819143","REF_FRAME":"TEME","INCLINATION":"53.0560","ARG_OF_PERICENTER":"119.4260","MEAN_ELEMENT_THEORY":"SGP4","COUNTRY_CODE":"US","FILE":"3106388","MEAN_MOTION_DOT":"-0.00001501","MEAN_ANOMALY":"240.6851","RA_OF_ASC_NODE":"338.8044","EPHEMERIS_TYPE":"0","SEMIMAJOR_AXIS":"6925.383","MEAN_MOTION":"15.06388855","TIME_SYSTEM":"UTC","MEAN_MOTION_DDOT":"0.0000000000000","BSTAR":"-0.00008190600000","REV_AT_EPOCH":"5951","SITE":"AFETR","PERIOD":"95.593","RCS_SIZE":"LARGE","NORAD_CAT_ID":"46038","CENTER_NAME":"EARTH","OBJECT_ID":"2020-055M","CLASSIFICATION_TYPE":"U"},{"BSTAR":"-0.00004413100000","SEMIMAJOR_AXIS":"6925.403","MEAN_MOTION":"15.06382168","TIME_SYSTEM":"UTC","MEAN_MOTION_DDOT":"0.0000000000000","PERIOD":"95.593","RCS_SIZE":"LARGE","NORAD_CAT_ID":"46039","SITE":"AFETR","REV_AT_EPOCH":"6005","CENTER_NAME":"EARTH","OBJECT_ID":"2020-055N","CLASSIFICATION_TYPE":"U","TLE_LINE2":"2 46039  53.0558 337.8779 0001432 119.9631 240.1501 15.06382168 60058","EPOCH":"2021-08-31T18:35:25.353600","PERIAPSIS":"546.276","LAUNCH_DATE":"2020-08-07","ELEMENT_SET_NO":"999","TLE_LINE1":"1 46039U 20055N   21243.77459900 -.00000938  00000-0 -44131-4 0  9996","OBJECT_TYPE":"PAYLOAD","DECAY_DATE":null,"OBJECT_NAME":"STARLINK-1569","REF_FRAME":"TEME","INCLINATION":"53.0558","ARG_OF_PERICENTER":"119.9631","MEAN_ELEMENT_THEORY":"SGP4","APOAPSIS":"548.260","ECCENTRICITY":"0.00014320","GP_ID":"183839585","RA_OF_ASC_NODE":"337.8779","EPHEMERIS_TYPE":"0","COUNTRY_CODE":"US","FILE":"3106454","MEAN_ANOMALY":"240.1501","MEAN_MOTION_DOT":"-0.00000938"},{"CLASSIFICATION_TYPE":"U","OBJECT_ID":"2020-055P","CENTER_NAME":"EARTH","NORAD_CAT_ID":"46040","PERIOD":"95.592","RCS_SIZE":"LARGE","SITE":"AFETR","REV_AT_EPOCH":"6001","BSTAR":"0.00006788600000","MEAN_MOTION_DDOT":"0.0000000000000","TIME_SYSTEM":"UTC","MEAN_MOTION":"15.06402781","SEMIMAJOR_AXIS":"6925.340","EPHEMERIS_TYPE":"0","RA_OF_ASC_NODE":"338.0403","MEAN_ANOMALY":"233.8488","MEAN_MOTION_DOT":"0.00000730","FILE":"3106454","COUNTRY_CODE":"US","ARG_OF_PERICENTER":"126.2616","MEAN_ELEMENT_THEORY":"SGP4","INCLINATION":"53.0563","REF_FRAME":"TEME","GP_ID":"183840337","ECCENTRICITY":"0.00012360","APOAPSIS":"548.061","DECAY_DATE":null,"OBJECT_TYPE":"PAYLOAD","OBJECT_NAME":"STARLINK-1576","TLE_LINE2":"2 46040  53.0563 338.0403 0001236 126.2616 233.8488 15.06402781 60012","TLE_LINE1":"1 46040U 20055P   21243.73771856  .00000730  00000-0  67886-4 0  9991","ELEMENT_SET_NO":"999","LAUNCH_DATE":"2020-08-07","PERIAPSIS":"546.349","EPOCH":"2021-08-31T17:42:18.883584"},{"EPOCH":"2021-08-31T17:46:17.084064","PERIAPSIS":"546.506","ELEMENT_SET_NO":"999","LAUNCH_DATE":"2020-08-07","TLE_LINE1":"1 46041U 20055Q   21243.74047551 -.00001601  00000-0 -88663-4 0  9997","TLE_LINE2":"2 46041  53.0564 338.0270 0001077 111.9908 248.1196 15.06387486 60024","OBJECT_NAME":"STARLINK-1580","OBJECT_TYPE":"PAYLOAD","DECAY_DATE":null,"APOAPSIS":"547.998","ECCENTRICITY":"0.00010770","GP_ID":"183840587","REF_FRAME":"TEME","INCLINATION":"53.0564","ARG_OF_PERICENTER":"111.9908","MEAN_ELEMENT_THEORY":"SGP4","FILE":"3106454","COUNTRY_CODE":"US","MEAN_MOTION_DOT":"-0.00001601","MEAN_ANOMALY":"248.1196","RA_OF_ASC_NODE":"338.0270","EPHEMERIS_TYPE":"0","SEMIMAJOR_AXIS":"6925.387","MEAN_MOTION":"15.06387486","TIME_SYSTEM":"UTC","MEAN_MOTION_DDOT":"0.0000000000000","BSTAR":"-0.00008866300000","SITE":"AFETR","REV_AT_EPOCH":"6002","PERIOD":"95.593","RCS_SIZE":"LARGE","NORAD_CAT_ID":"46041","CENTER_NAME":"EARTH","OBJECT_ID":"2020-055Q","CLASSIFICATION_TYPE":"U"},{"OBJECT_NAME":"STARLINK-1581","DECAY_DATE":null,"OBJECT_TYPE":"PAYLOAD","PERIAPSIS":"546.503","EPOCH":"2021-08-31T17:21:06.507072","TLE_LINE1":"1 46042U 20055R   21243.72299198 -.00000131  00000-0  10084-4 0  9990","LAUNCH_DATE":"2020-08-07","ELEMENT_SET_NO":"999","TLE_LINE2":"2 46042  53.0562 338.1035 0001087 108.3768 251.7339 15.06386138 60019","COUNTRY_CODE":"US","FILE":"3106454","MEAN_ANOMALY":"251.7339","MEAN_MOTION_DOT":"-0.00000131","RA_OF_ASC_NODE":"338.1035","EPHEMERIS_TYPE":"0","ECCENTRICITY":"0.00010870","APOAPSIS":"548.009","GP_ID":"183839835","INCLINATION":"53.0562","REF_FRAME":"TEME","ARG_OF_PERICENTER":"108.3768","MEAN_ELEMENT_THEORY":"SGP4","SITE":"AFETR","REV_AT_EPOCH":"6001","PERIOD":"95.593","RCS_SIZE":"LARGE","NORAD_CAT_ID":"46042","MEAN_MOTION":"15.06386138","SEMIMAJOR_AXIS":"6925.391","MEAN_MOTION_DDOT":"0.0000000000000","TIME_SYSTEM":"UTC","BSTAR":"0.00001008400000","CLASSIFICATION_TYPE":"U","OBJECT_ID":"2020-055R","CENTER_NAME":"EARTH"},{"CENTER_NAME":"EARTH","OBJECT_ID":"2020-055S","CLASSIFICATION_TYPE":"U","BSTAR":"0.00001972700000","TIME_SYSTEM":"UTC","MEAN_MOTION_DDOT":"0.0000000000000","SEMIMAJOR_AXIS":"6925.395","MEAN_MOTION":"15.06384974","NORAD_CAT_ID":"46043","PERIOD":"95.593","RCS_SIZE":"LARGE","REV_AT_EPOCH":"6005","SITE":"AFETR","MEAN_ELEMENT_THEORY":"SGP4","ARG_OF_PERICENTER":"117.6228","REF_FRAME":"TEME","INCLINATION":"53.0562","GP_ID":"183840085","APOAPSIS":"548.044","ECCENTRICITY":"0.00011330","EPHEMERIS_TYPE":"0","RA_OF_ASC_NODE":"337.8386","MEAN_MOTION_DOT":"0.00000012","MEAN_ANOMALY":"242.4877","FILE":"3106454","COUNTRY_CODE":"US","TLE_LINE2":"2 46043  53.0562 337.8386 0001133 117.6228 242.4877 15.06384974 60055","LAUNCH_DATE":"2020-08-07","ELEMENT_SET_NO":"999","TLE_LINE1":"1 46043U 20055S   21243.78196230  .00000012  00000-0  19727-4 0  9990","EPOCH":"2021-08-31T18:46:01.542720","PERIAPSIS":"546.475","OBJECT_TYPE":"PAYLOAD","DECAY_DATE":null,"OBJECT_NAME":"STARLINK-1582"},{"CLASSIFICATION_TYPE":"U","OBJECT_ID":"2020-055T","CENTER_NAME":"EARTH","REV_AT_EPOCH":"6005","SITE":"AFETR","NORAD_CAT_ID":"46044","RCS_SIZE":"LARGE","PERIOD":"95.592","MEAN_MOTION_DDOT":"0.0000000000000","TIME_SYSTEM":"UTC","MEAN_MOTION":"15.06394510","SEMIMAJOR_AXIS":"6925.365","BSTAR":"0.00003073400000","MEAN_MOTION_DOT":"0.00000176","MEAN_ANOMALY":"250.6114","FILE":"3106454","COUNTRY_CODE":"US","EPHEMERIS_TYPE":"0","RA_OF_ASC_NODE":"338.0661","GP_ID":"183840837","ECCENTRICITY":"0.00011830","APOAPSIS":"548.050","MEAN_ELEMENT_THEORY":"SGP4","ARG_OF_PERICENTER":"109.5003","INCLINATION":"53.0555","REF_FRAME":"TEME","OBJECT_NAME":"STARLINK-1584","DECAY_DATE":null,"OBJECT_TYPE":"PAYLOAD","TLE_LINE1":"1 46044U 20055T   21243.73035304  .00000176  00000-0  30734-4 0  9992","ELEMENT_SET_NO":"999","LAUNCH_DATE":"2020-08-07","PERIAPSIS":"546.411","EPOCH":"2021-08-31T17:31:42.502656","TLE_LINE2":"2 46044  53.0555 338.0661 0001183 109.5003 250.6114 15.06394510 60055"}];
